{
  "norad_id": 55345,
  "name": "STARLINK-5653",
  "history": [
    {
      "epoch": "2026-03-27T22:57:49.575456Z",
      "apogee_km": 486.3825517023806,
      "perigee_km": 484.7187938105053,
      "latitude_deg": 3.8856501574213344e-05,
      "longitude_deg": 15.96729793432305,
      "height_km": 485.22546794560094,
      "semi_major_axis_km": 6863.687672756443,
      "eccentricity": 0.0001212,
      "inclination_deg": 43.0005,
      "raan_deg": 185.808,
      "arg_perigee_deg": 277.0353,
      "mean_anomaly_deg": 83.0361,
      "mean_motion_rev_day": 15.26744951
    },
    {
      "epoch": "2026-03-29T22:04:03.990432Z",
      "apogee_km": 486.4181115067677,
      "perigee_km": 484.6966969501873,
      "latitude_deg": 5.857976788272122e-07,
      "longitude_deg": 16.403702029568425,
      "height_km": 485.26859785746325,
      "semi_major_axis_km": 6863.694404228478,
      "eccentricity": 0.0001254,
      "inclination_deg": 43.0001,
      "raan_deg": 174.739,
      "arg_perigee_deg": 274.3635,
      "mean_anomaly_deg": 85.7073,
      "mean_motion_rev_day": 15.26742705
    },
    {
      "epoch": "2026-03-30T05:55:06.414528Z",
      "apogee_km": 486.457828983991,
      "perigee_km": 484.6585799230961,
      "latitude_deg": -1.7412710976139655e-05,
      "longitude_deg": -103.52263293637606,
      "height_km": 485.29481324690863,
      "semi_major_axis_km": 6863.695204453544,
      "eccentricity": 0.00013107,
      "inclination_deg": 43.0014,
      "raan_deg": 172.8952,
      "arg_perigee_deg": 272.5652,
      "mean_anomaly_deg": 87.5049,
      "mean_motion_rev_day": 15.26742438
    },
    {
      "epoch": "2026-03-30T13:46:08.918112Z",
      "apogee_km": 486.45279045588995,
      "perigee_km": 484.68195472776006,
      "latitude_deg": 3.276980910754139e-05,
      "longitude_deg": 136.548372752651,
      "height_km": 485.3169284928745,
      "semi_major_axis_km": 6863.704372591825,
      "eccentricity": 0.000129,
      "inclination_deg": 42.9999,
      "raan_deg": 171.049,
      "arg_perigee_deg": 271.7556,
      "mean_anomaly_deg": 88.3148,
      "mean_motion_rev_day": 15.26739379
    },
    {
      "epoch": "2026-03-30T21:37:11.473536Z",
      "apogee_km": 486.4072959832665,
      "perigee_km": 484.72472782692785,
      "latitude_deg": -7.146228609292977e-06,
      "longitude_deg": 16.62026576600297,
      "height_km": 485.2902771463925,
      "semi_major_axis_km": 6863.703011905097,
      "eccentricity": 0.00012257,
      "inclination_deg": 43.0008,
      "raan_deg": 169.204,
      "arg_perigee_deg": 273.5757,
      "mean_anomaly_deg": 86.4954,
      "mean_motion_rev_day": 15.26739833
    },
    {
      "epoch": "2026-03-31T05:28:13.888128Z",
      "apogee_km": 486.4099444249314,
      "perigee_km": 484.71598327385254,
      "latitude_deg": -7.641285066844076e-06,
      "longitude_deg": -103.30741071724914,
      "height_km": 485.2913576026051,
      "semi_major_axis_km": 6863.699963849392,
      "eccentricity": 0.0001234,
      "inclination_deg": 43.0008,
      "raan_deg": 167.3588,
      "arg_perigee_deg": 273.2723,
      "mean_anomaly_deg": 86.7987,
      "mean_motion_rev_day": 15.2674085
    },
    {
      "epoch": "2026-04-01T20:43:26.102784Z",
      "apogee_km": 486.4061321512281,
      "perigee_km": 484.72589765318025,
      "latitude_deg": -2.722527734361511e-05,
      "longitude_deg": 17.054696580581886,
      "height_km": 485.2815356643878,
      "semi_major_axis_km": 6863.703014902204,
      "eccentricity": 0.0001224,
      "inclination_deg": 43.0008,
      "raan_deg": 158.1339,
      "arg_perigee_deg": 274.1785,
      "mean_anomaly_deg": 85.8926,
      "mean_motion_rev_day": 15.26739832
    },
    {
      "epoch": "2026-04-02T20:16:32.741760Z",
      "apogee_km": 486.4316938537604,
      "perigee_km": 484.65262821522174,
      "latitude_deg": 2.537690833776861e-05,
      "longitude_deg": 17.27505116375103,
      "height_km": 485.2238277035397,
      "semi_major_axis_km": 6863.679161034491,
      "eccentricity": 0.0001296,
      "inclination_deg": 43.0013,
      "raan_deg": 152.5991,
      "arg_perigee_deg": 276.1424,
      "mean_anomaly_deg": 83.928,
      "mean_motion_rev_day": 15.26747791
    },
    {
      "epoch": "2026-04-02T20:16:32.742624Z",
      "apogee_km": 486.4318997641358,
      "perigee_km": 484.65242230484637,
      "latitude_deg": 2.7737358201655185e-05,
      "longitude_deg": 17.27505007104668,
      "height_km": 485.2238056729202,
      "semi_major_axis_km": 6863.679161034491,
      "eccentricity": 0.00012963,
      "inclination_deg": 43.0013,
      "raan_deg": 152.5991,
      "arg_perigee_deg": 276.1424,
      "mean_anomaly_deg": 83.928,
      "mean_motion_rev_day": 15.26747791
    },
    {
      "epoch": "2026-04-03T10:24:24.858720Z",
      "apogee_km": 486.42346337481194,
      "perigee_km": 484.6433018243815,
      "latitude_deg": -2.7869815281700258e-05,
      "longitude_deg": 161.40629501140748,
      "height_km": 485.2228512912614,
      "semi_major_axis_km": 6863.670382599596,
      "eccentricity": 0.00012968,
      "inclination_deg": 43.0013,
      "raan_deg": 149.2779,
      "arg_perigee_deg": 275.6341,
      "mean_anomaly_deg": 84.4362,
      "mean_motion_rev_day": 15.2675072
    },
    {
      "epoch": "2026-04-04T03:40:42.579840Z",
      "apogee_km": 486.46096019113793,
      "perigee_km": 484.6477102142044,
      "latitude_deg": -2.133292773591906e-05,
      "longitude_deg": -102.435755170091,
      "height_km": 485.2662513582457,
      "semi_major_axis_km": 6863.691335202671,
      "eccentricity": 0.00013209,
      "inclination_deg": 43.0009,
      "raan_deg": 145.219,
      "arg_perigee_deg": 274.1057,
      "mean_anomaly_deg": 85.9643,
      "mean_motion_rev_day": 15.26743729
    },
    {
      "epoch": "2026-04-05T12:39:04.991904Z",
      "apogee_km": 486.49817154120865,
      "perigee_km": 484.623146614701,
      "latitude_deg": 2.4714687477772813e-06,
      "longitude_deg": 113.86743629950492,
      "height_km": 485.3823722401252,
      "semi_major_axis_km": 6863.697659077954,
      "eccentricity": 0.00013659,
      "inclination_deg": 43.0008,
      "raan_deg": 137.4697,
      "arg_perigee_deg": 267.2564,
      "mean_anomaly_deg": 92.8131,
      "mean_motion_rev_day": 15.26741619
    },
    {
      "epoch": "2026-04-06T02:46:57.313632Z",
      "apogee_km": 486.59020962481827,
      "perigee_km": 484.55072758759707,
      "latitude_deg": 1.3473508759883854e-06,
      "longitude_deg": -102.00232101584436,
      "height_km": 485.4524711392304,
      "semi_major_axis_km": 6863.707468606208,
      "eccentricity": 0.00014857,
      "inclination_deg": 43.0013,
      "raan_deg": 134.1483,
      "arg_perigee_deg": 264.0886,
      "mean_anomaly_deg": 95.9796,
      "mean_motion_rev_day": 15.26738346
    },
    {
      "epoch": "2026-04-07T08:36:50.705280Z",
      "apogee_km": 486.87959484413386,
      "perigee_km": 483.9430943203888,
      "latitude_deg": 3.205011424331791e-05,
      "longitude_deg": 162.29000720218912,
      "height_km": 484.94601662787335,
      "semi_major_axis_km": 6863.548344582261,
      "eccentricity": 0.00021392,
      "inclination_deg": 43.002,
      "raan_deg": 127.1382,
      "arg_perigee_deg": 279.5231,
      "mean_anomaly_deg": 80.5379,
      "mean_motion_rev_day": 15.2679144
    },
    {
      "epoch": "2026-04-08T11:17:30.164928Z",
      "apogee_km": 484.94181509848386,
      "perigee_km": 483.1362393422005,
      "latitude_deg": 1.0027970168719201e-05,
      "longitude_deg": 114.75185394783315,
      "height_km": 483.7815149233448,
      "semi_major_axis_km": 6862.176027220342,
      "eccentricity": 0.00013156,
      "inclination_deg": 43.0022,
      "raan_deg": 120.8601,
      "arg_perigee_deg": 272.1853,
      "mean_anomaly_deg": 87.8848,
      "mean_motion_rev_day": 15.27249461
    },
    {
      "epoch": "2026-04-09T02:59:12.548256Z",
      "apogee_km": 485.0468739827011,
      "perigee_km": 482.4957537097798,
      "latitude_deg": -5.466755748440487e-05,
      "longitude_deg": -125.01078935724057,
      "height_km": 483.1559626126718,
      "semi_major_axis_km": 6861.90831384624,
      "eccentricity": 0.00018589,
      "inclination_deg": 43.0022,
      "raan_deg": 117.1687,
      "arg_perigee_deg": 287.9296,
      "mean_anomaly_deg": 72.1352,
      "mean_motion_rev_day": 15.27338839
    },
    {
      "epoch": "2026-04-10T07:14:04.040160Z",
      "apogee_km": 484.0280617268054,
      "perigee_km": 482.1679809125253,
      "latitude_deg": 8.473989941459388e-06,
      "longitude_deg": 163.46803589367903,
      "height_km": 482.7418142247685,
      "semi_major_axis_km": 6861.235021319665,
      "eccentricity": 0.00013555,
      "inclination_deg": 43.0026,
      "raan_deg": 110.5221,
      "arg_perigee_deg": 278.2323,
      "mean_anomaly_deg": 81.8375,
      "mean_motion_rev_day": 15.27563661
    },
    {
      "epoch": "2026-04-11T20:00:01.000224Z",
      "apogee_km": 484.1376042753154,
      "perigee_km": 481.91733145351463,
      "latitude_deg": 17.235580487644338,
      "longitude_deg": 122.50017680721247,
      "height_km": 482.49332136362983,
      "semi_major_axis_km": 6861.164467864414,
      "eccentricity": 0.0001618,
      "inclination_deg": 43.0011,
      "raan_deg": 101.8708,
      "arg_perigee_deg": 260.4066,
      "mean_anomaly_deg": 253.9331,
      "mean_motion_rev_day": 15.27587223
    },
    {
      "epoch": "2026-04-13T05:51:05.130432Z",
      "apogee_km": 483.71762702687647,
      "perigee_km": 482.22437548148446,
      "latitude_deg": 3.982031233737615e-06,
      "longitude_deg": 164.69414882824896,
      "height_km": 482.9933778617424,
      "semi_major_axis_km": 6861.108001254181,
      "eccentricity": 0.00010882,
      "inclination_deg": 43.0023,
      "raan_deg": 93.9029,
      "arg_perigee_deg": 250.781,
      "mean_anomaly_deg": 109.2924,
      "mean_motion_rev_day": 15.27606081
    },
    {
      "epoch": "2026-04-14T10:05:54.001824Z",
      "apogee_km": 484.12549294744895,
      "perigee_km": 481.9783524859731,
      "latitude_deg": 2.0148120512167412e-05,
      "longitude_deg": 93.18527702651217,
      "height_km": 482.7600333931631,
      "semi_major_axis_km": 6861.18892271671,
      "eccentricity": 0.00015647,
      "inclination_deg": 43.0034,
      "raan_deg": 87.2577,
      "arg_perigee_deg": 273.6909,
      "mean_anomaly_deg": 86.3764,
      "mean_motion_rev_day": 15.27579056
    }
  ]
}